NORAD_CAT_ID,OBJECT_NAME,OBJECT_TYPE,EPOCH,MEAN_MOTION,ECCENTRICITY,INCLINATION,RA_OF_ASC_NODE,ARG_OF_PERICENTER,MEAN_ANOMALY,BSTAR,MEAN_MOTION_DOT,MEAN_MOTION_DDOT,TLE_LINE0,TLE_LINE1,TLE_LINE2,SEMIMAJOR_AXIS,PERIOD,APOGEE,PERIGEE,DECAYED
54104.0,STARLINK-5203,PAYLOAD,2023-11-19 10:05:50,15.08854381,0.0001755,53.2173,115.5968,82.0738,278.0453,0.00014361,1.999e-05,0.0,0 STARLINK-5203,1 54104U 22136BF  23323.42072212  .00001999  00000-0  14361-3 0  9997,2 54104  53.2173 115.5968 0001755  82.0738 278.0453 15.08854381 60949,6917.836,95.437,540.916,538.487,0.0
54104.0,STARLINK-5203,PAYLOAD,2023-11-19 18:02:45,15.08859226,0.0001756,53.2169,114.1088,92.612,267.5073,8.1959e-05,1.017e-05,0.0,0 STARLINK-5203,1 54104U 22136BF  23323.75191754  .00001017  00000-0  81959-4 0  9995,2 54104  53.2169 114.1088 0001756  92.6120 267.5073 15.08859226 60523,6917.822,95.436,540.901,538.472,0.0
54104.0,STARLINK-5203,PAYLOAD,2023-11-20 09:56:37,15.08850874,0.0001677,53.2171,111.1363,84.5524,275.566,1.9366e-05,2e-07,0.0,0 STARLINK-5203,1 54104U 22136BF  23324.41431844  .00000020  00000-0  19366-4 0  9992,2 54104  53.2171 111.1363 0001677  84.5524 275.5660 15.08850874 61093,6917.847,95.437,540.872,538.552,0.0
54104.0,STARLINK-5203,PAYLOAD,2023-11-20 16:18:09,15.08852012,0.0001306,53.2171,109.9458,84.2075,275.9066,-2.9239e-05,-7.53e-06,0.0,0 STARLINK-5203,1 54104U 22136BF  23324.67927599 -.00000753  00000-0 -29239-4 0  9992,2 54104  53.2171 109.9458 0001306  84.2075 275.9066 15.08852012 60662,6917.844,95.437,540.612,538.805,0.0
54104.0,STARLINK-5203,PAYLOAD,2023-11-21 09:47:23,15.0884559,0.0001441,53.217,106.6748,91.1438,268.9719,-2.3777e-05,-6.66e-06,0.0,0 STARLINK-5203,1 54104U 22136BF  23325.40791656 -.00000666  00000-0 -23777-4 0  9991,2 54104  53.2170 106.6748 0001441  91.1438 268.9719 15.08845590 61242,6917.863,95.437,540.725,538.731,0.0
54104.0,STARLINK-5203,PAYLOAD,2023-11-21 12:58:11,15.08791714,0.0001261,53.2172,106.0803,107.6651,252.4478,0.00079727,0.00012407,0.0,0 STARLINK-5203,1 54104U 22136BF  23325.54041426  .00012407  00000-0  79727-3 0  9998,2 54104  53.2172 106.0803 0001261 107.6651 252.4478 15.08791714 60797,6918.028,95.441,540.765,539.021,0.0
54104.0,STARLINK-5203,PAYLOAD,2023-11-21 16:08:56,15.08843955,0.0001526,53.2174,105.4855,95.0156,265.101,2.1656e-05,5.7e-07,0.0,0 STARLINK-5203,1 54104U 22136BF  23325.67287555  .00000057  00000-0  21656-4 0  9994,2 54104  53.2174 105.4855 0001526  95.0156 265.1010 15.08843955 60814,6917.868,95.437,540.789,538.678,0.0
54104.0,STARLINK-5203,PAYLOAD,2023-11-22 14:24:19,15.08847431,0.00015,53.2179,101.3223,96.2437,263.8726,8.9651e-05,1.139e-05,0.0,0 STARLINK-5203,1 54104U 22136BF  23326.60022957  .00001139  00000-0  89651-4 0  9992,2 54104  53.2179 101.3223 0001500  96.2437 263.8726 15.08847431 60957,6917.858,95.437,540.76,538.685,0.0
54104.0,STARLINK-5203,PAYLOAD,2023-11-22 15:59:42,15.088496,0.0001526,53.2183,101.0252,96.4766,263.64,0.00011041,1.47e-05,0.0,0 STARLINK-5203,1 54104U 22136BF  23326.66646765  .00001470  00000-0  11041-3 0  9992,2 54104  53.2183 101.0252 0001526  96.4766 263.6400 15.08849600 61437,6917.851,95.437,540.772,538.66,0.0
54104.0,STARLINK-5203,PAYLOAD,2023-11-23 09:28:58,15.08832279,0.0001389,53.2183,97.7531,112.9859,247.128,-1.0425e-05,-4.54e-06,0.0,0 STARLINK-5203,1 54104U 22136BF  23327.39512341 -.00000454  00000-0 -10425-4 0  9994,2 54104  53.2183  97.7531 0001389 112.9859 247.1280 15.08832279 61541,6917.904,95.438,540.73,538.808,0.0
54104.0,STARLINK-5203,PAYLOAD,2023-11-23 14:15:08,15.08831637,0.0001441,53.2179,96.8609,111.3769,248.7377,-3.7618e-06,-3.48e-06,0.0,0 STARLINK-5203,1 54104U 22136BF  23327.59384482 -.00000348  00000-0 -37618-5 0  9995,2 54104  53.2179  96.8609 0001441 111.3769 248.7377 15.08831637 61107,6917.906,95.438,540.768,538.774,0.0
54104.0,STARLINK-5203,PAYLOAD,2023-11-24 14:05:54,15.08840936,0.000138,53.2171,92.4008,113.9785,246.1352,-5.1674e-05,-1.11e-05,0.0,0 STARLINK-5203,1 54104U 22136BF  23328.58744071 -.00001110  00000-0 -51674-4 0  9994,2 54104  53.2171  92.4008 0001380 113.9785 246.1352 15.08840936 61255,6917.878,95.437,540.697,538.788,0.0
54104.0,STARLINK-5203,PAYLOAD,2023-11-24 15:41:18,15.08841264,0.0001344,53.2171,92.1037,112.1906,247.9229,-7.388e-06,-4.05e-06,0.0,0 STARLINK-5203,1 54104U 22136BF  23328.65368080 -.00000405  00000-0 -73880-5 0  9994,2 54104  53.2171  92.1037 0001344 112.1906 247.9229 15.08841264 61730,6917.877,95.437,540.671,538.812,0.0
54104.0,STARLINK-5203,PAYLOAD,2023-11-25 13:56:42,15.08839945,0.0001477,53.2183,87.9416,69.6024,290.5127,0.00023836,3.508e-05,0.0,0 STARLINK-5203,1 54104U 22136BF  23329.58104733  .00003508  00000-0  23836-3 0  9999,2 54104  53.2183  87.9416 0001477  69.6024 290.5127 15.08839945 61408,6917.881,95.438,540.767,538.724,0.0
54104.0,STARLINK-5203,PAYLOAD,2023-11-25 17:07:27,15.08867848,0.0001603,53.2184,87.3451,103.7546,256.3625,-7.7068e-05,-1.515e-05,0.0,0 STARLINK-5203,1 54104U 22136BF  23329.71350989 -.00001515  00000-0 -77068-4 0  9995,2 54104  53.2184  87.3451 0001603 103.7546 256.3625 15.08867848 61420,6917.795,95.436,540.769,538.551,0.0
54104.0,STARLINK-5203,PAYLOAD,2023-11-26 12:12:05,15.08857235,0.0001558,53.2183,83.7778,103.7428,256.3737,0.00025601,3.791e-05,0.0,0 STARLINK-5203,1 54104U 22136BF  23330.50839416  .00003791  00000-0  25601-3 0  9992,2 54104  53.2183  83.7778 0001558 103.7428 256.3737 15.08857235 62018,6917.828,95.436,540.771,538.615,0.0
54104.0,STARLINK-5203,PAYLOAD,2023-11-26 13:47:28,15.08858093,0.0001662,53.2183,83.4804,103.5113,256.6065,0.00027927,4.162e-05,0.0,0 STARLINK-5203,1 54104U 22136BF  23330.57463336  .00004162  00000-0  27927-3 0  9999,2 54104  53.2183  83.4804 0001662 103.5113 256.6065 15.08858093 61558,6917.825,95.436,540.84,538.54,0.0
54104.0,STARLINK-5203,PAYLOAD,2023-11-26 15:22:51,15.08859784,0.0001565,53.2182,83.1843,71.7434,288.3728,0.00030899,4.636e-05,0.0,0 STARLINK-5203,1 54104U 22136BF  23330.64087200  .00004636  00000-0  30899-3 0  9997,2 54104  53.2182  83.1843 0001565  71.7434 288.3728 15.08859784 61568,6917.82,95.436,540.768,538.602,0.0
54104.0,STARLINK-5203,PAYLOAD,2023-11-27 12:02:53,15.08827847,0.0001572,53.2189,79.3183,81.3555,278.7616,-0.00030203,-5.09e-05,0.0,0 STARLINK-5203,1 54104U 22136BF  23331.50200698 -.00005090  00000-0 -30203-3 0  9997,2 54104  53.2189  79.3183 0001572  81.3555 278.7616 15.08827847 62169,6917.918,95.438,540.87,538.695,0.0
54104.0,STARLINK-5203,PAYLOAD,2023-11-27 13:38:16,15.08830552,0.0001402,53.219,79.0211,95.5467,264.5685,-0.00023145,-3.969e-05,0.0,0 STARLINK-5203,1 54104U 22136BF  23331.56824846 -.00003969  00000-0 -23145-3 0  9990,2 54104  53.2190  79.0211 0001402  95.5467 264.5685 15.08830552 61706,6917.909,95.438,540.744,538.804,0.0
54104.0,STARLINK-5203,PAYLOAD,2023-11-28 11:53:40,15.08842846,0.0001859,53.2191,74.8573,57.4673,302.6499,-1.0054e-05,-4.48e-06,0.0,0 STARLINK-5203,1 54104U 22136BF  23332.49560359 -.00000448  00000-0 -10054-4 0  9994,2 54104  53.2191  74.8573 0001859  57.4673 302.6499 15.08842846 62317,6917.872,95.437,541.023,538.451,0.0
54104.0,STARLINK-5203,PAYLOAD,2023-11-28 13:29:03,15.08842763,0.0003277,53.2196,74.5595,38.7393,321.3833,0.00010456,1.376e-05,0.0,0 STARLINK-5203,1 54104U 22136BF  23332.56185117  .00001376  00000-0  10456-3 0  9991,2 54104  53.2196  74.5595 0003277  38.7393 321.3833 15.08842763 61856,6917.872,95.437,542.004,537.47,0.0
54104.0,STARLINK-5203,PAYLOAD,2023-11-29 13:19:50,15.08846429,0.0001499,53.2185,70.0995,129.3082,230.8044,0.00028602,4.268e-05,0.0,0 STARLINK-5203,1 54104U 22136BF  23333.55544451  .00004268  00000-0  28602-3 0  9996,2 54104  53.2185  70.0995 0001499 129.3082 230.8044 15.08846429 62004,6917.861,95.437,540.763,538.689,0.0
54104.0,STARLINK-5203,PAYLOAD,2023-11-30 11:35:14,15.08846876,0.0001713,53.2192,65.9374,83.8182,276.3006,-2.8619e-07,-2.93e-06,0.0,0 STARLINK-5203,1 54104U 22136BF  23334.48280639 -.00000293  00000-0 -28619-6 0  9991,2 54104  53.2192  65.9374 0001713  83.8182 276.3006 15.08846876 62616,6917.859,95.437,540.909,538.539,0.0
54104.0,STARLINK-5203,PAYLOAD,2023-12-01 11:26:02,15.08838759,0.0001597,53.2199,61.4825,94.2855,265.8319,7.8242e-05,9.57e-06,0.0,0 STARLINK-5203,1 54104U 22136BF  23335.47641253  .00000957  00000-0  78242-4 0  9994,2 54104  53.2199  61.4825 0001597  94.2855 265.8319 15.08838759 62765,6917.884,95.438,540.854,538.644,0.0
54104.0,STARLINK-5203,PAYLOAD,2023-12-02 11:16:49,15.08819023,0.000222,53.2182,57.0246,40.3535,319.7621,-0.00020328,-3.52e-05,0.0,0 STARLINK-5203,1 54104U 22136BF  23336.47002154 -.00003520  00000-0 -20328-3 0  9998,2 54104  53.2182  57.0246 0002220  40.3535 319.7621 15.08819023 62911,6917.945,95.439,541.345,538.274,0.0
54104.0,STARLINK-5203,PAYLOAD,2023-12-02 12:52:12,15.08818865,0.0001572,53.2171,56.724,62.1925,297.9227,-0.00024473,-4.178e-05,0.0,0 STARLINK-5203,1 54104U 22136BF  23336.53625939 -.00004178  00000-0 -24473-3 0  9992,2 54104  53.2171  56.7240 0001572  62.1925 297.9227 15.08818865 62454,6917.945,95.439,540.897,538.722,0.0
54104.0,STARLINK-5203,PAYLOAD,2023-12-03 14:18:24,15.08827155,0.0001431,53.2191,51.9589,92.7381,267.3775,-2.3142e-05,-6.56e-06,0.0,0 STARLINK-5203,1 54104U 22136BF  23337.59611509 -.00000656  00000-0 -23142-4 0  9997,2 54104  53.2191  51.9589 0001431  92.7381 267.3775 15.08827155 62617,6917.92,95.438,540.775,538.795,0.0
54104.0,STARLINK-5203,PAYLOAD,2023-12-04 10:58:27,15.08741287,0.0002012,53.2185,48.097,82.4882,277.6339,0.0018454,0.00029124,0.0,0 STARLINK-5203,1 54104U 22136BF  23338.45726248  .00029124  00000-0  18454-2 0  9997,2 54104  53.2185  48.0970 0002012  82.4882 277.6339 15.08741287 63217,6918.182,95.444,541.439,538.655,0.0
54104.0,STARLINK-5203,PAYLOAD,2023-12-04 14:09:10,15.08844408,0.0001511,53.2183,47.4988,81.5788,278.5375,0.00066399,0.00010296,0.0,0 STARLINK-5203,1 54104U 22136BF  23338.58970883  .00010296  00000-0  66399-3 0  9999,2 54104  53.2183  47.4988 0001511  81.5788 278.5375 15.08844408 62763,6917.867,95.437,540.777,538.687,0.0
